UNKNOWN                 
1 82311U          25307.09216429  .00000664  00000+0  99499-3 0  9993
2 82311  99.4378   2.7215 0108967  48.6682 312.3770 13.54467771544954
UNKNOWN                 
1 82363U          25305.63176466  .00000530  00000+0  91703-3 0  9996
2 82363  66.9348 281.9851 0459594 192.2796 166.6735 13.15574703284853
UNKNOWN                 
1 82369U          25307.31599646  .00000177  00000+0  14921-3 0  9992
2 82369  98.9015 323.5758 0084371  87.9722 273.1101 13.98129916551660
UNKNOWN                 
1 82381U          25307.06433641  .00021953  00000+0  30365-2 0  9994
2 82381  98.3992 170.0615 0008750 284.5244  75.4994 14.78041525504940
UNKNOWN                 
1 82402U          25306.89339259  .00006188  00000+0  46042-3 0  9991
2 82402  86.6661 172.7963 0006746 327.2676  32.8139 15.02776769448486
UNKNOWN                 
1 82432U          25302.75892794  .00003737  00000+0  79690-3 0  9995
2 82432  74.0082  64.4530 0057022 239.9565 119.5937 14.58270752476495
UNKNOWN                 
1 82448U          25308.21409438  .00007480  00000+0  55328-3 0  9999
2 82448  85.8744 219.8933 0011560  51.7476 308.4796 15.02985100431255
UNKNOWN                 
1 82453U          25306.80988699 -.00000007  00000+0  29278-3 0  9993
2 82453 102.1700 263.2165 0093759 281.0872  77.9659 12.39699072541114
UNKNOWN                 
1 82458U          25297.77306600  .00003765  00000+0  17103-2 0  9995
2 82458  66.5148 311.0021 0044906  40.7381 319.7055 14.22335814603072
UNKNOWN                 
1 82484U          25308.51584254  .00000173  00000+0  30647-3 0  9991
2 82484  99.3607 332.1004 0043642 292.5310  67.1212 13.55769572585452
UNKNOWN                 
1 82494U          25306.84840307  .00020600  00000+0  24834-2 0  9997
2 82494  74.0075 101.1476 0005531 238.0677 121.9964 14.83775116 79044
UNKNOWN                 
1 82500U          25307.12468701  .00006009  00000+0  27526-2 0  9999
2 82500  70.9661  87.6613 0119828 176.8488 183.3420 14.17984472613332
