CCSDS_OMM_VERS = 2.0
CREATION_DATE  = 
ORIGINATOR     = 

OBJECT_NAME    = UNKNOWN
OBJECT_ID      = 
CENTER_NAME    = EARTH
REF_FRAME      = TEME
TIME_SYSTEM    = UTC
MEAN_ELEMENT_THEORY = SGP/SGP4

EPOCH          = 2025-11-03T02:12:42.994656
MEAN_MOTION    = 13.54467771
ECCENTRICITY   = .0108967
INCLINATION    = 99.4378
RA_OF_ASC_NODE = 2.7215
ARG_OF_PERICENTER = 48.6682
MEAN_ANOMALY   = 312.3770

EPHEMERIS_TYPE = 0
CLASSIFICATION_TYPE = U
NORAD_CAT_ID   = 82311
ELEMENT_SET_NO = 999
REV_AT_EPOCH   = 54495
BSTAR          = .99499E-3
MEAN_MOTION_DOT = .664E-5
MEAN_MOTION_DDOT = 0

CCSDS_OMM_VERS = 2.0
CREATION_DATE  = 
ORIGINATOR     = 

OBJECT_NAME    = UNKNOWN
OBJECT_ID      = 
CENTER_NAME    = EARTH
REF_FRAME      = TEME
TIME_SYSTEM    = UTC
MEAN_ELEMENT_THEORY = SGP/SGP4

EPOCH          = 2025-11-01T15:09:44.466624
MEAN_MOTION    = 13.15574703
ECCENTRICITY   = .0459594
INCLINATION    = 66.9348
RA_OF_ASC_NODE = 281.9851
ARG_OF_PERICENTER = 192.2796
MEAN_ANOMALY   = 166.6735

EPHEMERIS_TYPE = 0
CLASSIFICATION_TYPE = U
NORAD_CAT_ID   = 82363
ELEMENT_SET_NO = 999
REV_AT_EPOCH   = 28485
BSTAR          = .91703E-3
MEAN_MOTION_DOT = .53E-5
MEAN_MOTION_DDOT = 0

CCSDS_OMM_VERS = 2.0
CREATION_DATE  = 
ORIGINATOR     = 

OBJECT_NAME    = UNKNOWN
OBJECT_ID      = 
CENTER_NAME    = EARTH
REF_FRAME      = TEME
TIME_SYSTEM    = UTC
MEAN_ELEMENT_THEORY = SGP/SGP4

EPOCH          = 2025-11-03T07:35:02.094144
MEAN_MOTION    = 13.98129916
ECCENTRICITY   = .0084371
INCLINATION    = 98.9015
RA_OF_ASC_NODE = 323.5758
ARG_OF_PERICENTER = 87.9722
MEAN_ANOMALY   = 273.1101

EPHEMERIS_TYPE = 0
CLASSIFICATION_TYPE = U
NORAD_CAT_ID   = 82369
ELEMENT_SET_NO = 999
REV_AT_EPOCH   = 55166
BSTAR          = .14921E-3
MEAN_MOTION_DOT = .177E-5
MEAN_MOTION_DDOT = 0

CCSDS_OMM_VERS = 2.0
CREATION_DATE  = 
ORIGINATOR     = 

OBJECT_NAME    = UNKNOWN
OBJECT_ID      = 
CENTER_NAME    = EARTH
REF_FRAME      = TEME
TIME_SYSTEM    = UTC
MEAN_ELEMENT_THEORY = SGP/SGP4

EPOCH          = 2025-11-03T01:32:38.665824
MEAN_MOTION    = 14.78041525
ECCENTRICITY   = .000875
INCLINATION    = 98.3992
RA_OF_ASC_NODE = 170.0615
ARG_OF_PERICENTER = 284.5244
MEAN_ANOMALY   = 75.4994

EPHEMERIS_TYPE = 0
CLASSIFICATION_TYPE = U
NORAD_CAT_ID   = 82381
ELEMENT_SET_NO = 999
REV_AT_EPOCH   = 50494
BSTAR          = .30365E-2
MEAN_MOTION_DOT = .21953E-3
MEAN_MOTION_DDOT = 0

CCSDS_OMM_VERS = 2.0
CREATION_DATE  = 
ORIGINATOR     = 

OBJECT_NAME    = UNKNOWN
OBJECT_ID      = 
CENTER_NAME    = EARTH
REF_FRAME      = TEME
TIME_SYSTEM    = UTC
MEAN_ELEMENT_THEORY = SGP/SGP4

EPOCH          = 2025-11-02T21:26:29.119776
MEAN_MOTION    = 15.02776769
ECCENTRICITY   = .0006746
INCLINATION    = 86.6661
RA_OF_ASC_NODE = 172.7963
ARG_OF_PERICENTER = 327.2676
MEAN_ANOMALY   = 32.8139

EPHEMERIS_TYPE = 0
CLASSIFICATION_TYPE = U
NORAD_CAT_ID   = 82402
ELEMENT_SET_NO = 999
REV_AT_EPOCH   = 44848
BSTAR          = .46042E-3
MEAN_MOTION_DOT = .6188E-4
MEAN_MOTION_DDOT = 0

CCSDS_OMM_VERS = 2.0
CREATION_DATE  = 
ORIGINATOR     = 

OBJECT_NAME    = UNKNOWN
OBJECT_ID      = 
CENTER_NAME    = EARTH
REF_FRAME      = TEME
TIME_SYSTEM    = UTC
MEAN_ELEMENT_THEORY = SGP/SGP4

EPOCH          = 2025-10-29T18:12:51.374016
MEAN_MOTION    = 14.58270752
ECCENTRICITY   = .0057022
INCLINATION    = 74.0082
RA_OF_ASC_NODE = 64.4530
ARG_OF_PERICENTER = 239.9565
MEAN_ANOMALY   = 119.5937

EPHEMERIS_TYPE = 0
CLASSIFICATION_TYPE = U
NORAD_CAT_ID   = 82432
ELEMENT_SET_NO = 999
REV_AT_EPOCH   = 47649
BSTAR          = .7969E-3
MEAN_MOTION_DOT = .3737E-4
MEAN_MOTION_DDOT = 0

CCSDS_OMM_VERS = 2.0
CREATION_DATE  = 
ORIGINATOR     = 

OBJECT_NAME    = UNKNOWN
OBJECT_ID      = 
CENTER_NAME    = EARTH
REF_FRAME      = TEME
TIME_SYSTEM    = UTC
MEAN_ELEMENT_THEORY = SGP/SGP4

EPOCH          = 2025-11-04T05:08:17.754432
MEAN_MOTION    = 15.02985100
ECCENTRICITY   = .001156
INCLINATION    = 85.8744
RA_OF_ASC_NODE = 219.8933
ARG_OF_PERICENTER = 51.7476
MEAN_ANOMALY   = 308.4796

EPHEMERIS_TYPE = 0
CLASSIFICATION_TYPE = U
NORAD_CAT_ID   = 82448
ELEMENT_SET_NO = 999
REV_AT_EPOCH   = 43125
BSTAR          = .55328E-3
MEAN_MOTION_DOT = .748E-4
MEAN_MOTION_DDOT = 0

CCSDS_OMM_VERS = 2.0
CREATION_DATE  = 
ORIGINATOR     = 

OBJECT_NAME    = UNKNOWN
OBJECT_ID      = 
CENTER_NAME    = EARTH
REF_FRAME      = TEME
TIME_SYSTEM    = UTC
MEAN_ELEMENT_THEORY = SGP/SGP4

EPOCH          = 2025-11-02T19:26:14.235936
MEAN_MOTION    = 12.39699072
ECCENTRICITY   = .0093759
INCLINATION    = 102.1700
RA_OF_ASC_NODE = 263.2165
ARG_OF_PERICENTER = 281.0872
MEAN_ANOMALY   = 77.9659

EPHEMERIS_TYPE = 0
CLASSIFICATION_TYPE = U
NORAD_CAT_ID   = 82453
ELEMENT_SET_NO = 999
REV_AT_EPOCH   = 54111
BSTAR          = .29278E-3
MEAN_MOTION_DOT = -.7E-7
MEAN_MOTION_DDOT = 0

CCSDS_OMM_VERS = 2.0
CREATION_DATE  = 
ORIGINATOR     = 

OBJECT_NAME    = UNKNOWN
OBJECT_ID      = 
CENTER_NAME    = EARTH
REF_FRAME      = TEME
TIME_SYSTEM    = UTC
MEAN_ELEMENT_THEORY = SGP/SGP4

EPOCH          = 2025-10-24T18:33:12.902400
MEAN_MOTION    = 14.22335814
ECCENTRICITY   = .0044906
INCLINATION    = 66.5148
RA_OF_ASC_NODE = 311.0021
ARG_OF_PERICENTER = 40.7381
MEAN_ANOMALY   = 319.7055

EPHEMERIS_TYPE = 0
CLASSIFICATION_TYPE = U
NORAD_CAT_ID   = 82458
ELEMENT_SET_NO = 999
REV_AT_EPOCH   = 60307
BSTAR          = .17103E-2
MEAN_MOTION_DOT = .3765E-4
MEAN_MOTION_DDOT = 0

CCSDS_OMM_VERS = 2.0
CREATION_DATE  = 
ORIGINATOR     = 

OBJECT_NAME    = UNKNOWN
OBJECT_ID      = 
CENTER_NAME    = EARTH
REF_FRAME      = TEME
TIME_SYSTEM    = UTC
MEAN_ELEMENT_THEORY = SGP/SGP4

EPOCH          = 2025-11-04T12:22:48.795456
MEAN_MOTION    = 13.55769572
ECCENTRICITY   = .0043642
INCLINATION    = 99.3607
RA_OF_ASC_NODE = 332.1004
ARG_OF_PERICENTER = 292.5310
MEAN_ANOMALY   = 67.1212

EPHEMERIS_TYPE = 0
CLASSIFICATION_TYPE = U
NORAD_CAT_ID   = 82484
ELEMENT_SET_NO = 999
REV_AT_EPOCH   = 58545
BSTAR          = .30647E-3
MEAN_MOTION_DOT = .173E-5
MEAN_MOTION_DDOT = 0

CCSDS_OMM_VERS = 2.0
CREATION_DATE  = 
ORIGINATOR     = 

OBJECT_NAME    = UNKNOWN
OBJECT_ID      = 
CENTER_NAME    = EARTH
REF_FRAME      = TEME
TIME_SYSTEM    = UTC
MEAN_ELEMENT_THEORY = SGP/SGP4

EPOCH          = 2025-11-02T20:21:42.025248
MEAN_MOTION    = 14.83775116
ECCENTRICITY   = .0005531
INCLINATION    = 74.0075
RA_OF_ASC_NODE = 101.1476
ARG_OF_PERICENTER = 238.0677
MEAN_ANOMALY   = 121.9964

EPHEMERIS_TYPE = 0
CLASSIFICATION_TYPE = U
NORAD_CAT_ID   = 82494
ELEMENT_SET_NO = 999
REV_AT_EPOCH   = 7904
BSTAR          = .24834E-2
MEAN_MOTION_DOT = .206E-3
MEAN_MOTION_DDOT = 0

CCSDS_OMM_VERS = 2.0
CREATION_DATE  = 
ORIGINATOR     = 

OBJECT_NAME    = UNKNOWN
OBJECT_ID      = 
CENTER_NAME    = EARTH
REF_FRAME      = TEME
TIME_SYSTEM    = UTC
MEAN_ELEMENT_THEORY = SGP/SGP4

EPOCH          = 2025-11-03T02:59:32.957664
MEAN_MOTION    = 14.17984472
ECCENTRICITY   = .0119828
INCLINATION    = 70.9661
RA_OF_ASC_NODE = 87.6613
ARG_OF_PERICENTER = 176.8488
MEAN_ANOMALY   = 183.3420

EPHEMERIS_TYPE = 0
CLASSIFICATION_TYPE = U
NORAD_CAT_ID   = 82500
ELEMENT_SET_NO = 999
REV_AT_EPOCH   = 61333
BSTAR          = .27526E-2
MEAN_MOTION_DOT = .6009E-4
MEAN_MOTION_DDOT = 0

